EUTELSAT 33F            
1 29270U 06032A   26164.91992656  .00000164  00000+0  00000+0 0  9996
2 29270   1.6530  82.2798 0003687 358.6239 185.6016  1.00268659 47277
JCSAT-3A                
1 29272U 06033A   26164.92987235 -.00000335  00000+0  00000+0 0  9998
2 29272   0.0118 349.3488 0001874 100.9638 274.6812  1.00270699 47702
KOREASAT 5 (MUGUNGWHA 5)
1 29349U 06034A   26164.92692566 -.00000349  00000+0  00000+0 0  9999
2 29349   1.7767  83.0231 0001339  50.1876 215.7825  1.00271400 41287
DIRECTV 9S              
1 29494U 06043A   26164.88448873 -.00000105  00000+0  00000+0 0  9995
2 29494   2.4120  80.9408 0004834  11.0248  27.4537  1.00270835 51351
OPTUS D1                
1 29495U 06043B   26164.86325530 -.00000176  00000+0  00000+0 0  9996
2 29495   3.0261  79.6938 0003331 358.2619 286.9746  1.00269974 72086
BADR-4                  
1 29526U 06051A   26164.92103366  .00000164  00000+0  00000+0 0  9994
2 29526   1.9962  81.1562 0004739 352.8101 194.2800  1.00269249 51237
WILDBLUE-1              
1 29643U 06054A   26164.59731461 -.00000040  00000+0  00000+0 0  9997
2 29643   2.7936  80.5258 0001250 357.0063 288.2110  1.00270349 53751
SKYNET 5A               
1 30794U 07007B   26164.86040277 -.00000265  00000+0  00000+0 0  9992
2 30794   5.2925  73.7819 0004063  15.1563 218.1902  1.00270373 70662
ANIK F3                 
1 31102U 07009A   26164.88102205  .00000008  00000+0  00000+0 0  9994
2 31102   1.1887  83.8859 0002419 355.8466  20.8816  1.00271311 46537
ASTRA 1L                
1 31306U 07016A   26164.82832473 -.00000175  00000+0  00000+0 0  9995
2 31306   1.3129  81.6003 0005116   9.3909  84.8664  1.00271716 44955
GALAXY 17 (G-17)        
1 31307U 07016B   26164.88769541 -.00000198  00000+0  00000+0 0  9992
2 31307   2.9637  79.9408 0004746  21.7162  35.1031  1.00269685 69779
INTELSAT 11 (IS-11)     
1 32253U 07044B   26164.93229903 -.00000275  00000+0  00000+0 0  9999
2 32253   3.5568  78.7072 0002195  91.0886 208.2372  0.99052194 68416
WGS F1 (USA 195)        
1 32258U 07046A   26164.75352196 -.00000257  00000+0  00000+0 0  9997
2 32258   0.0476  94.6469 0000141 320.8650  75.3295  1.00269422 52304
SKYNET 5B               
1 32294U 07056B   26164.91324365  .00000146  00000+0  00000+0 0  9999
2 32294   5.2443  73.5453 0004032   2.7551 179.7696  1.00273220 68169
ASTRA 4A                
1 32299U 07057A   26164.90546034  .00000042  00000+0  00000+0 0  9998
2 32299   0.0117 350.9577 0002112  95.0744 146.9423  1.00270761 51613
HORIZONS-2              
1 32388U 07063B   26164.88986208 -.00000245  00000+0  00000+0 0  9998
2 32388   2.5934  80.6645 0003724   0.0989  68.0013  1.00269479 67784
THURAYA-3               
1 32404U 08001A   26164.96567689 -.00000072  00000+0  00000+0 0  9995
2 32404   5.9838  35.7936 0001550 160.3252 132.8728  1.00007445 67455
THOR 5                  
1 32487U 08006A   26164.90433366  .00000001  00000+0  00000+0 0  9990
2 32487   0.0264 261.3120 0002290 188.2660 137.4383  1.00270566 67286
AMC-14                  
1 32708U 08011A   26164.63226838 -.00000044  00000+0  00000+0 0  9994
2 32708  24.0004  20.5622 0045988   6.8842 166.6569  1.00354274 68134
DIRECTV 11              
1 32729U 08013A   26164.45710639 -.00000114  00000+0  00000+0 0  9994
2 32729   0.0087 254.9847 0000317 115.1892 316.9799  1.00271658 45550
ICO G1                  
1 32763U 08016A   26164.60095463 -.00000166  00000+0  00000+0 0  9990
2 32763   5.5307  36.1495 0002380  35.5622 313.6880  1.00272526 66508
VINASAT-1               
1 32767U 08018A   26164.93065235 -.00000318  00000+0  00000+0 0  9995
2 32767   0.0147 319.3639 0001140 131.0065 278.8586  1.00271619 66558
STAR ONE C2             
1 32768U 08018B   26164.89159542 -.00000267  00000+0  00000+0 0  9999
2 32768   1.2325  82.4882 0002478   8.8539  66.8417  1.00270105 66625
AMOS-3                  
1 32794U 08022A   26164.92214043  .00000157  00000+0  00000+0 0  9992
2 32794   0.4468  86.2787 0002029  72.5713 111.8463  1.00473746 82304
GALAXY 18 (G-18)        
1 32951U 08024A   26164.73757522  .00000000  00000+0  00000+0 0  9999
2 32951   0.0251   6.8014 0002682  72.3830 325.3812  1.00271427 45816
ZHONGXING-9             
1 33051U 08028A   26164.96997655 -.00000240  00000+0  00000+0 0  9990
2 33051   0.7592  85.4146 0004054 336.8811 281.5686  1.00270670 66009
SKYNET 5C               
1 33055U 08030A   26164.90104032 -.00000133  00000+0  00000+0 0  9991
2 33055   3.7804  77.0774 0003850  14.3679 117.3411  1.00271842 65923
TURKSAT 3A              
1 33056U 08030B   26164.92658277  .00000156  00000+0  00000+0 0  9993
2 33056   0.0492  78.6996 0005091 348.8361 210.2616  1.00268862 52320
INTELSAT 25 (IS-25)     
1 33153U 08034A   26164.93143235 -.00000265  00000+0  00000+0 0  9991
2 33153   2.7012  80.4086 0003119  58.9452 234.3418  0.99036317 65657
ECHOSTAR 11             
1 33207U 08035A   26164.88275538 -.00000049  00000+0  00000+0 0  9998
2 33207   0.9963  84.2144 0002052 349.0827  36.8918  1.00271398 51180
SUPERBIRD-C2            
1 33274U 08038A   26164.93143235 -.00000299  00000+0  00000+0 0  9996
2 33274   2.3524  81.3011 0005927  27.0106 265.2122  1.00268581105692
INMARSAT 4-F3           
1 33278U 08039A   26164.44558519 -.00000132  00000+0  00000+0 0  9998
2 33278   4.2899  31.6188 0002816  52.3375 240.2113  1.00272733 46509
