OBJECT_NAME,OBJECT_ID,EPOCH,MEAN_MOTION,ECCENTRICITY,INCLINATION,RA_OF_ASC_NODE,ARG_OF_PERICENTER,MEAN_ANOMALY,EPHEMERIS_TYPE,CLASSIFICATION_TYPE,NORAD_CAT_ID,ELEMENT_SET_NO,REV_AT_EPOCH,BSTAR,MEAN_MOTION_DOT,MEAN_MOTION_DDOT
EUTELSAT 33F,2006-032A,2026-06-13T22:04:41.654784,1.00268659,.00036875,1.6530,82.2798,358.6239,185.6016,0,U,29270,999,4727,0,.164E-5,0
JCSAT-3A,2006-033A,2026-06-13T22:19:00.971040,1.00270699,.00018742,0.0118,349.3488,100.9638,274.6812,0,U,29272,999,4770,0,-.335E-5,0
KOREASAT 5 (MUGUNGWHA 5),2006-034A,2026-06-13T22:14:46.377024,1.00271400,.00013397,1.7767,83.0231,50.1876,215.7825,0,U,29349,999,4128,0,-.349E-5,0
DIRECTV 9S,2006-043A,2026-06-13T21:13:39.826272,1.00270835,.00048349,2.4120,80.9408,11.0248,27.4537,0,U,29494,999,5135,0,-.105E-5,0
OPTUS D1,2006-043B,2026-06-13T20:43:05.257920,1.00269974,.00033315,3.0261,79.6938,358.2619,286.9746,0,U,29495,999,7208,0,-.176E-5,0
BADR-4,2006-051A,2026-06-13T22:06:17.308224,1.00269249,.00047393,1.9962,81.1562,352.8101,194.2800,0,U,29526,999,5123,0,.164E-5,0
WILDBLUE-1,2006-054A,2026-06-13T14:20:07.982304,1.00270349,.00012506,2.7936,80.5258,357.0063,288.2110,0,U,29643,999,5375,0,-.4E-6,0
SKYNET 5A,2007-007B,2026-06-13T20:38:58.799328,1.00270373,.00040633,5.2925,73.7819,15.1563,218.1902,0,U,30794,999,7066,0,-.265E-5,0
ANIK F3,2007-009A,2026-06-13T21:08:40.305120,1.00271311,.00024198,1.1887,83.8859,355.8466,20.8816,0,U,31102,999,4653,0,.8E-7,0
ASTRA 1L,2007-016A,2026-06-13T19:52:47.256672,1.00271716,.00051162,1.3129,81.6003,9.3909,84.8664,0,U,31306,999,4495,0,-.175E-5,0
GALAXY 17 (G-17),2007-016B,2026-06-13T21:18:16.883424,1.00269685,.00047469,2.9637,79.9408,21.7162,35.1031,0,U,31307,999,6977,0,-.198E-5,0
INTELSAT 11 (IS-11),2007-044B,2026-06-13T22:22:30.636192,0.99052194,.00021952,3.5568,78.7072,91.0886,208.2372,0,U,32253,999,6841,0,-.275E-5,0
WGS F1 (USA 195),2007-046A,2026-06-13T18:05:04.297344,1.00269422,.00001415,0.0476,94.6469,320.8650,75.3295,0,U,32258,999,5230,0,-.257E-5,0
SKYNET 5B,2007-056B,2026-06-13T21:55:04.251360,1.00273220,.00040324,5.2443,73.5453,2.7551,179.7696,0,U,32294,999,6816,0,.146E-5,0
ASTRA 4A,2007-057A,2026-06-13T21:43:51.773376,1.00270761,.00021129,0.0117,350.9577,95.0744,146.9423,0,U,32299,999,5161,0,.42E-6,0
HORIZONS-2,2007-063B,2026-06-13T21:21:24.083712,1.00269479,.00037241,2.5934,80.6645,0.0989,68.0013,0,U,32388,999,6778,0,-.245E-5,0
THURAYA-3,2008-001A,2026-06-13T23:10:34.483296,1.00007445,.00015508,5.9838,35.7936,160.3252,132.8728,0,U,32404,999,6745,0,-.72E-6,0
THOR 5,2008-006A,2026-06-13T21:42:14.428224,1.00270566,.00022902,0.0264,261.3120,188.2660,137.4383,0,U,32487,999,6728,0,.1E-7,0
AMC-14,2008-011A,2026-06-13T15:10:27.988032,1.00354274,.00459883,24.0004,20.5622,6.8842,166.6569,0,U,32708,999,6813,0,-.44E-6,0
DIRECTV 11,2008-013A,2026-06-13T10:58:13.992096,1.00271658,.00003175,0.0087,254.9847,115.1892,316.9799,0,U,32729,999,4555,0,-.114E-5,0
ICO G1,2008-016A,2026-06-13T14:25:22.480032,1.00272526,.00023808,5.5307,36.1495,35.5622,313.6880,0,U,32763,999,6650,0,-.166E-5,0
VINASAT-1,2008-018A,2026-06-13T22:20:08.363040,1.00271619,.00011405,0.0147,319.3639,131.0065,278.8586,0,U,32767,999,6655,0,-.318E-5,0
STAR ONE C2,2008-018B,2026-06-13T21:23:53.844288,1.00270105,.00024782,1.2325,82.4882,8.8539,66.8417,0,U,32768,999,6662,0,-.267E-5,0
AMOS-3,2008-022A,2026-06-13T22:07:52.933152,1.00473746,.00020297,0.4468,86.2787,72.5713,111.8463,0,U,32794,999,8230,0,.157E-5,0
GALAXY 18 (G-18),2008-024A,2026-06-13T17:42:06.499008,1.00271427,.00026827,0.0251,6.8014,72.3830,325.3812,0,U,32951,999,4581,0,0,0
ZHONGXING-9,2008-028A,2026-06-13T23:16:45.973920,1.00270670,.0004054,0.7592,85.4146,336.8811,281.5686,0,U,33051,999,6600,0,-.24E-5,0
SKYNET 5C,2008-030A,2026-06-13T21:37:29.883648,1.00271842,.00038506,3.7804,77.0774,14.3679,117.3411,0,U,33055,999,6592,0,-.133E-5,0
TURKSAT 3A,2008-030B,2026-06-13T22:14:16.751328,1.00268862,.0005091,0.0492,78.6996,348.8361,210.2616,0,U,33056,999,5232,0,.156E-5,0
INTELSAT 25 (IS-25),2008-034A,2026-06-13T22:21:15.755040,0.99036317,.00031193,2.7012,80.4086,58.9452,234.3418,0,U,33153,999,6565,0,-.265E-5,0
ECHOSTAR 11,2008-035A,2026-06-13T21:11:10.064832,1.00271398,.00020523,0.9963,84.2144,349.0827,36.8918,0,U,33207,999,5118,0,-.49E-6,0
SUPERBIRD-C2,2008-038A,2026-06-13T22:21:15.755040,1.00268581,.00059278,2.3524,81.3011,27.0106,265.2122,0,U,33274,999,10569,0,-.299E-5,0
INMARSAT 4-F3,2008-039A,2026-06-13T10:41:38.560416,1.00272733,.00028165,4.2899,31.6188,52.3375,240.2113,0,U,33278,999,4650,0,-.132E-5,0
